[{"OBJECT_NAME":"STARLINK-1278","OBJECT_ID":"2020-019BA","EPOCH":"2026-03-10T00:00:02.999808","MEAN_MOTION":15.56016323,"ECCENTRICITY":0.00019768,"INCLINATION":53.0445,"RA_OF_ASC_NODE":128.895,"ARG_OF_PERICENTER":44.2892,"MEAN_ANOMALY":100.8701,"EPHEMERIS_TYPE":0,"CLASSIFICATION_TYPE":"U","NORAD_CAT_ID":45408,"ELEMENT_SET_NO":999,"REV_AT_EPOCH":587,"BSTAR":0.0023716775,"MEAN_MOTION_DOT":0.00171237,"MEAN_MOTION_DDOT":0},{"OBJECT_NAME":"HYPERVIEW 1G (RS66S)","OBJECT_ID":"2024-199AP","EPOCH":"2026-03-09T22:47:00.600864","MEAN_MOTION":15.58013725,"ECCENTRICITY":0.00064415,"INCLINATION":97.3083,"RA_OF_ASC_NODE":305.028,"ARG_OF_PERICENTER":283.1837,"MEAN_ANOMALY":76.87,"EPHEMERIS_TYPE":0,"CLASSIFICATION_TYPE":"U","NORAD_CAT_ID":61772,"ELEMENT_SET_NO":999,"REV_AT_EPOCH":11914,"BSTAR":0.0010158871,"MEAN_MOTION_DOT":0.00076691,"MEAN_MOTION_DDOT":0}]
